OSIRIS-3U               
1 43027U 98067NL  18341.89141029  .00077151  00000-0  42202-3 0  9991
2 43027  51.6343 203.5556 0004658 146.6770 213.4525 15.79143036 59713
AEROCUBE 7B             
1 43042U 17071F   18341.90792972  .00002409  00000-0  69428-4 0  9999
2 43042  51.6392 274.5337 0004834 167.9611 192.1490 15.39964411 56361
AEROCUBE 7C             
1 43043U 17071G   18341.90784871  .00002308  00000-0  67000-4 0  9991
2 43043  51.6395 274.5425 0004997 169.1371 190.9722 15.39934886 56334
CHEFSAT                 
1 43044U 17071H   18341.90663562  .00004848  00000-0  12297-3 0  9993
2 43044  51.6396 272.3428 0004870 166.1112 194.0008 15.41582861 56365
ASGARDIA 1              
1 43049U 17071N   18341.87491540  .00002334  00000-0  67357-4 0  9995
2 43049  51.6397 274.3365 0002321 179.3036 180.7952 15.40057325 56331
ISARA                   
1 43050U 17071P   18341.93415835  .00003786  00000-0  99135-4 0  9998
2 43050  51.6391 272.5068 0002181 171.7067 188.3955 15.41268742 56369
FAUNA                   
1 43052U 17071R   18341.90997246  .00002418  00000-0  68991-4 0  9995
2 43052  51.6396 273.8343 0002281 174.2371 185.8641 15.40252787 56335
CORVUS BC3              
1 43118U 18004H   18341.86183841  .00000641  00000-0  30726-4 0  9999
2 43118  97.5130  44.6127 0009991 199.2352 160.8509 15.22529137 50132
MICROMAS-2A             
1 43131U 18004W   18341.93797298  .00001473  00000-0  64886-4 0  9997
2 43131  97.5144  45.0091 0009086 201.0258 159.0606 15.23410872 50166
CICERO 7                
1 43143U 18004AJ  18341.79000935  .00001481  00000-0  64739-4 0  9995
2 43143  97.5138  45.0420 0006898 209.4697 150.6152 15.23682600 50157
GOMX4-B                 
1 43196U 18015E   18341.97518777  .00000325  00000-0  16402-4 0  9993
2 43196  97.3676 107.6015 0017560 266.2883  93.6343 15.23773222 46997
GOMX4-A                 
1 43197U 18015F   18342.11548588  .00000366  00000-0  18090-4 0  9994
2 43197  97.3680 107.7469 0017635 266.5725 178.6910 15.23842399 47029
1KUNS-PF                
1 43466U 98067NP  18342.05136198  .00010945  00000-0  14010-3 0  9992
2 43466  51.6385 227.2587 0001623 107.0220 253.0951 15.59763652 32795
UBAKUSAT                
1 43467U 98067NQ  18342.11466961  .00007691  00000-0  10487-3 0  9992
2 43467  51.6381 227.6804 0003334  75.3313 284.8049 15.58580957 32805
BATSU-CS1 (IRAZU)       
1 43468U 98067NR  18341.93175257  .00013161  00000-0  16155-3 0  9994
2 43468  51.6383 227.2088 0001641 112.3456 247.7711 15.60664632132774
CUBERRT                 
1 43546U 98067NU  18341.89583896  .00021755  00000-0  28752-3 0  9992
2 43546  51.6382 230.7100 0006754 125.1546 235.0080 15.58258387 22877
TEMPEST-D               
1 43547U 98067NV  18341.90319613  .00002640  00000-0  44298-4 0  9995
2 43547  51.6386 231.5046 0006738 119.1923 240.9743 15.55918092 22542
RAINCUBE                
1 43548U 98067NW  18341.92958021  .00007515  00000-0  10842-3 0  9993
2 43548  51.6386 230.9322 0006786 129.5649 230.5943 15.57076300 23004
HALOSAT                 
1 43549U 98067NX  18341.93002039  .00008349  00000-0  11957-3 0  9998
2 43549  51.6386 230.9367 0006704 132.0359 228.1205 15.57105394 22561
ENDUROSAT ONE           
1 43551U 98067NZ  18341.95309664  .00008998  00000-0  12543-3 0  9999
2 43551  51.6384 230.3386 0007237 137.8813 222.2736 15.57722906 22981
EQUISAT                 
1 43552U 98067PA  18341.90402194  .00008002  00000-0  11388-3 0  9999
2 43552  51.6383 230.7631 0007431 137.6116 222.5451 15.57341315 22931
AEROCUBE 12A            
1 43556U 18046C   18341.96030592  .00000438  00000-0  28586-4 0  9991
2 43556  51.6432 260.7159 0009205  99.4914 260.7106 15.28086631 22082
AEROCUBE 12B            
1 43557U 18046D   18341.83167648  .00000564  00000-0  33150-4 0  9994
2 43557  51.6432 261.3562 0009178  99.1683 261.0335 15.28035326 22013
UITMSAT-1               
1 43589U 98067PD  18341.95405207  .00008175  00000-0  11762-3 0  9999
2 43589  51.6383 231.0922 0006767 145.0452 215.0986 15.57011360 18675
MAYA-1                  
1 43590U 98067PE  18342.08031261  .00008119  00000-0  11674-3 0  9991
2 43590  51.6383 230.4362 0006832 146.2630 213.8798 15.57038470 18625
BHUTAN-1                
1 43591U 98067PF  18341.94889749  .00008157  00000-0  11708-3 0  9998
2 43591  51.6382 231.0589 0006905 147.2595 212.8826 15.57079539 18605
SIRIUSSAT-1             
1 43595U 98067PG  18341.92029388  .00007959  00000-0  11653-3 0  9993
2 43595  51.6384 231.6133 0004725 105.6094 254.5420 15.56581995 17775
SIRIUSSAT-2             
1 43596U 98067PH  18341.93098172  .00007749  00000-0  11429-3 0  9990
2 43596  51.6392 231.6957 0005383 107.7580 252.3999 15.56425399 17775
TANUSHA-3               
1 43597U 98067PJ  18341.91567788  .00010230  00000-0  14618-3 0  9995
2 43597  51.6371 231.5710 0004944 118.6640 241.4849 15.56879891 17772
SURFSAT                 
1 43614U 18070B   18341.82458015  .00002877  00000-0  80499-4 0  9992
2 43614  93.0357 283.9261 0015489 339.1751  20.8868 15.36614125 12788
CP-7 (DAVE)             
1 43615U 18070C   18341.82440959  .00002611  00000-0  73102-4 0  9990
2 43615  93.0358 283.9269 0015499 338.8608  21.2002 15.36603916 12787
ELFIN-B                 
1 43616U 18070D   18341.81838958  .00003932  00000-0  10918-3 0  9992
2 43616  93.0330 283.8887 0016809 342.2009  17.8653 15.36805288 12782
ELFIN-A                 
1 43617U 18070E   18341.94689922  .00003323  00000-0  92277-4 0  9995
2 43617  93.0381 284.0083 0015645 338.3122  21.7467 15.36838397 12806
DEBRISSAT-1             
1 43621U 98067PM  18341.94153851  .00086902  00000-0  85111-3 0  9993
2 43621  51.6454 228.8083 0009710 139.4644 220.6960 15.65314441 12802
CUBEBEL-1 (BSUSAT-1)    
1 43666U 18083E   18342.12465036  .00001110  00000-0  59193-4 0  9994
2 43666  97.5363   2.7895 0016510 132.2547 313.5346 15.17168886  6088
DEBRISSAT-2             
1 43680U 98067PR  18341.90702489  .00013946  00000-0  19989-3 0  9999
2 43680  51.6403 231.5131 0004955 131.4968 228.6444 15.56446012 26511
CICERO 10               
1 43690U 18088A   18341.79827125  .00001138  00000-0  51954-4 0  9996
2 43690  85.0394  85.4543 0015142 186.5733 173.5311 15.19275756  4067
IRVINE01                
1 43693U 18088D   18341.77688333  .00002713  00000-0  12173-3 0  9992
2 43693  85.0373  85.4250 0019283 175.2291 184.9138 15.20530750  4047
PROXIMA I               
1 43694U 18088E   18341.70176127  .00001085  00000-0  46833-4 0  9991
2 43694  85.0337  85.4447 0020144 167.1493 193.0267 15.21032251  4046
PROXIMA II              
1 43696U 18088G   18341.76742448  .00001049  00000-0  45193-4 0  9992
2 43696  85.0338  85.4014 0020198 166.8899 193.2872 15.21038484  4042
FACSAT-1                
1 43721U 18096C   18342.14681584  .00001058  00000-0  44281-4 0  9993
2 43721  97.4845  47.1428 0016813 289.8631  70.0794 15.25719667  1375
CENTAURI-2              
1 43722U 18096D   18342.14639641  .00001453  00000-0  59608-4 0  9999
2 43722  97.4845  47.1432 0016952 290.7782  69.1640 15.25795805  1369
